*******************************************************************************
Ephemeris / WWW_USER Mon Mar 26 20:36:31 2018 Pasadena, USA      / Horizons    
*******************************************************************************
Target body name: Hydra (903)                     {source: plu055l_merged}
Center body name: Pluto Barycenter (9)            {source: plu055l_merged}
Center-site name: BODY CENTER
*******************************************************************************
Start time      : A.D. 2000-Jan-01 00:00:00.0000 TDB
Stop  time      : A.D. 2005-Jan-01 00:00:00.0000 TDB
Step-size       : 7200 minutes
*******************************************************************************
Center geodetic : 0.00000000,0.00000000,0.0000000 {E-lon(deg),Lat(deg),Alt(km)}
Center cylindric: 0.00000000,0.00000000,0.0000000 {E-lon(deg),Dxy(km),Dz(km)}
Center radii    : (undefined)                                                  
Output units    : AU-D                                                         
Output type     : GEOMETRIC cartesian states
Output format   : 2 (position and velocity)
Reference frame : ICRF/J2000.0                                                 
Coordinate systm: Ecliptic and Mean Equinox of Reference Epoch                 
*******************************************************************************
JDTDB
   X     Y     Z
   VX    VY    VZ
*******************************************************************************
$$SOE
2452384.500000000 = A.D. 2002-Apr-20 00:00:00.0000 TDB 
   2.514016390335537E-04  5.756977735637709E-05 -3.474326685805854E-04
  -3.199899815781941E-05 -5.512559866128234E-05 -3.168534553174348E-05
2452389.500000000 = A.D. 2002-Apr-25 00:00:00.0000 TDB 
   2.867218614180607E-05 -2.060959543902559E-04 -3.773519514083756E-04
  -5.215210738202168E-05 -4.440284162673376E-05  2.052149714573805E-05
2452394.500000000 = A.D. 2002-Apr-30 00:00:00.0000 TDB 
  -2.124276237524191E-04 -3.366526645719313E-04 -1.638321136244211E-04
  -3.869074619700617E-05 -4.861717395089299E-06  5.981207487075707E-05
2452399.500000000 = A.D. 2002-May-05 00:00:00.0000 TDB 
  -3.156366057796460E-04 -2.486760159343741E-04  1.559848694345953E-04
  -1.934993290936762E-07  3.790301392429073E-05  6.051822109879615E-05
2452404.500000000 = A.D. 2002-May-10 00:00:00.0000 TDB 
  -2.152732911140412E-04 -1.660688168819895E-07  3.753996348588268E-04
   3.808611829603581E-05  5.590971831689296E-05  2.230252594073805E-05
2452409.500000000 = A.D. 2002-May-15 00:00:00.0000 TDB 
   2.278370179334850E-05  2.489534671563062E-04  3.554901163908754E-04
   5.172534581222478E-05  3.824031070093998E-05 -2.955047439352361E-05
2452414.500000000 = A.D. 2002-May-20 00:00:00.0000 TDB 
   2.465898399498549E-04  3.407855327240353E-04  1.107705599403176E-04
   3.271144381480856E-05 -3.489642190596866E-06 -6.261285026879996E-05
2452419.500000000 = A.D. 2002-May-25 00:00:00.0000 TDB 
   3.151130428325683E-04  2.180772693371534E-04 -2.035640875234638E-04
  -6.999414321521206E-06 -4.303145190476860E-05 -5.609186487466289E-05
2452424.500000000 = A.D. 2002-May-30 00:00:00.0000 TDB 
   1.840425273127268E-04 -4.265396752168895E-05 -3.887531552744395E-04
  -4.250701757827535E-05 -5.545849250206171E-05 -1.387195914593377E-05
2452429.500000000 = A.D. 2002-Jun-04 00:00:00.0000 TDB 
  -6.467025738348726E-05 -2.755694056999163E-04 -3.245769600462914E-04
  -5.115250496117946E-05 -3.231171232199141E-05  3.794419961436008E-05
2452434.500000000 = A.D. 2002-Jun-09 00:00:00.0000 TDB 
  -2.713572274603056E-04 -3.301082516247946E-04 -5.062605314460733E-05
  -2.662084469870727E-05  1.195647246390777E-05  6.540155344958902E-05
2452439.500000000 = A.D. 2002-Jun-14 00:00:00.0000 TDB 
  -3.022387978665927E-04 -1.705776635142571E-04  2.563904661380039E-04
   1.490471992191650E-05  4.822338099224934E-05  5.053163085342462E-05
2452444.500000000 = A.D. 2002-Jun-19 00:00:00.0000 TDB 
  -1.385526254032620E-04  9.893147149659519E-05  3.985953771688274E-04
   4.663062660381986E-05  5.338348859961440E-05  3.389217909348838E-06
2452449.500000000 = A.D. 2002-Jun-24 00:00:00.0000 TDB 
   1.135368317796080E-04  3.059033755044591E-04  2.874169047579380E-04
   4.844424384263383E-05  2.461117782789709E-05 -4.541822421108412E-05
2452454.500000000 = A.D. 2002-Jun-29 00:00:00.0000 TDB 
   2.942447616718030E-04  3.200250774487889E-04 -5.251859480992071E-06
   1.981786125070105E-05 -1.935767749497222E-05 -6.526548612278174E-05
2452459.500000000 = A.D. 2002-Jul-04 00:00:00.0000 TDB 
   2.894286566055334E-04  1.325328114183078E-04 -2.943033123959024E-04
  -2.156211074365285E-05 -5.138841522946699E-05 -4.393146069002103E-05
2452464.500000000 = A.D. 2002-Jul-09 00:00:00.0000 TDB 
   1.008738663426557E-04 -1.388755884434460E-04 -3.961511796612699E-04
  -4.959929065739569E-05 -5.083856028405556E-05  5.814862784563343E-06
2452469.500000000 = A.D. 2002-Jul-14 00:00:00.0000 TDB 
  -1.523623139838420E-04 -3.206684374179587E-04 -2.431052525331118E-04
  -4.589320351887055E-05 -1.756615794718950E-05  5.213048297108757E-05
2452474.500000000 = A.D. 2002-Jul-19 00:00:00.0000 TDB 
  -3.066878975461718E-04 -2.946066604547606E-04  6.720961963482652E-05
  -1.240920977787690E-05  2.728503520060441E-05  6.490265596628293E-05
2452479.500000000 = A.D. 2002-Jul-24 00:00:00.0000 TDB 
  -2.626542706185487E-04 -7.778198346143441E-05  3.343570076405539E-04
   2.893008349911239E-05  5.428658009803055E-05  3.567845266281779E-05
2452484.500000000 = A.D. 2002-Jul-29 00:00:00.0000 TDB 
  -4.980944340000132E-05  1.893762199986632E-04  3.871381383712813E-04
   5.134892069601849E-05  4.644462287185168E-05 -1.582309931825903E-05
2452489.500000000 = A.D. 2002-Aug-03 00:00:00.0000 TDB 
   1.947816071596949E-04  3.366937254859208E-04  1.945678638901776E-04
   4.112259164151271E-05  9.309426101530919E-06 -5.688819794164136E-05
2452494.500000000 = A.D. 2002-Aug-08 00:00:00.0000 TDB 
   3.169011978342644E-04  2.720893733217999E-04 -1.206472972340996E-04
   4.966579523514494E-06 -3.362607252929733E-05 -6.197071041304997E-05
2452499.500000000 = A.D. 2002-Aug-13 00:00:00.0000 TDB 
   2.387243606775134E-04  3.564050453940910E-05 -3.593585470095733E-04
  -3.457175875086784E-05 -5.557330418701984E-05 -2.788697353832950E-05
2452504.500000000 = A.D. 2002-Aug-18 00:00:00.0000 TDB 
   8.659913345025482E-06 -2.230457391086075E-04 -3.687361293096683E-04
  -5.235230882450673E-05 -4.206901245084920E-05  2.449439538849589E-05
2452509.500000000 = A.D. 2002-Aug-23 00:00:00.0000 TDB 
  -2.268378071010702E-04 -3.377764731025033E-04 -1.404275602135961E-04
  -3.639804544819809E-05 -1.241743670975879E-06  6.142892870718096E-05
2452514.500000000 = A.D. 2002-Aug-28 00:00:00.0000 TDB 
  -3.150425325492389E-04 -2.332056373397809E-04  1.789624325830853E-04
   3.153992719272536E-06  4.051993206991534E-05  5.873921515270137E-05
2452519.500000000 = A.D. 2002-Sep-02 00:00:00.0000 TDB 
  -1.998436182500825E-04  2.206782293259152E-05  3.829969984396244E-04
   4.034077461792689E-05  5.583638519373629E-05  1.825757531245816E-05
2452524.500000000 = A.D. 2002-Sep-07 00:00:00.0000 TDB 
   4.337910325888405E-05  2.637531540043955E-04  3.425468136298518E-04
   5.143987250137001E-05  3.552698372998701E-05 -3.326203243170574E-05
2452529.500000000 = A.D. 2002-Sep-12 00:00:00.0000 TDB 
   2.593382204793293E-04  3.387138578808375E-04  8.533562097789070E-05
   3.005757337967678E-05 -7.116614067872467E-06 -6.361233556164892E-05
2452534.500000000 = A.D. 2002-Sep-17 00:00:00.0000 TDB 
   3.120678659679725E-04  2.005166039088716E-04 -2.254938468214040E-04
  -1.031439684925443E-05 -4.524705800083425E-05 -5.375069385699129E-05
2452539.500000000 = A.D. 2002-Sep-22 00:00:00.0000 TDB 
   1.673385114240314E-04 -6.445120616864365E-05 -3.934483825343765E-04
  -4.436767140730732E-05 -5.486055754561407E-05 -9.702503948939438E-06
2452544.500000000 = A.D. 2002-Sep-27 00:00:00.0000 TDB 
  -8.418262134327399E-05 -2.876613719718671E-04 -3.093368434176166E-04
  -5.036792640492359E-05 -2.926960108187420E-05  4.129161978822144E-05
2452549.500000000 = A.D. 2002-Oct-02 00:00:00.0000 TDB 
  -2.810591087443599E-04 -3.247378696456384E-04 -2.541234033346690E-05
  -2.368611461569226E-05  1.550726897396669E-05  6.579364286118993E-05
2452554.500000000 = A.D. 2002-Oct-07 00:00:00.0000 TDB 
  -2.957017773063385E-04 -1.510881844653822E-04  2.752106772789204E-04
   1.811782072226925E-05  5.001515337947112E-05  4.771544163210495E-05
2452559.500000000 = A.D. 2002-Oct-12 00:00:00.0000 TDB 
  -1.197483666722704E-04  1.201079897776327E-04  3.986857044956269E-04
   4.805573349083131E-05  5.224753233139849E-05 -8.489677374282701E-07
2452564.500000000 = A.D. 2002-Oct-17 00:00:00.0000 TDB 
   1.327638677908260E-04  3.152356517252262E-04  2.684286160686221E-04
   4.716058692019558E-05  2.127363934633235E-05 -4.835406645609556E-05
2452569.500000000 = A.D. 2002-Oct-22 00:00:00.0000 TDB 
   3.017630282995529E-04  3.115678706985014E-04 -3.142271781204164E-05
   1.666571964432735E-05 -2.274796643349684E-05 -6.503313061348625E-05
2452574.500000000 = A.D. 2002-Oct-27 00:00:00.0000 TDB 
   2.806612815413706E-04  1.117682777843887E-04 -3.112083844739463E-04
  -2.456280606173068E-05 -5.266150676819811E-05 -4.068447790190717E-05
2452579.500000000 = A.D. 2002-Nov-01 00:00:00.0000 TDB 
   8.161700016150415E-05 -1.586704852587062E-04 -3.933178556419176E-04
  -5.053727682444362E-05 -4.918879145322204E-05  9.998141840374230E-06
2452584.500000000 = A.D. 2002-Nov-06 00:00:00.0000 TDB 
  -1.696464791363058E-04 -3.268350542117596E-04 -2.226150736636446E-04
  -4.418894430501090E-05 -1.405386549920270E-05  5.460291973650408E-05
2452589.500000000 = A.D. 2002-Nov-11 00:00:00.0000 TDB 
  -3.107993639011382E-04 -2.831869824354381E-04  9.201880271503878E-05
  -9.137670714487075E-06  3.042335863283125E-05  6.407420997393671E-05
